QIANFAN-25              
1 61558U 24185G   25311.77627907  .00000794  00000+0  47757-3 0  9994
2 61558  88.9789  82.1389 0010839  61.0689 299.1579 14.05858026 64593
QIANFAN-26              
1 61559U 24185H   25311.81649292  .00000415  00000+0  40256-3 0  9998
2 61559  88.9789  83.5131 0007506 113.1782 247.0176 13.77781976 63865
QIANFAN-27              
1 61560U 24185J   25311.83520137  .00001093  00000+0  44122-3 0  9997
2 61560  88.9785  81.0288 0009357  54.2639 305.9424 14.27263006 65183
QIANFAN-28              
1 61561U 24185K   25311.83400647  .00001535  00000+0  61399-3 0  9997
2 61561  88.9803  81.0293 0008571  55.1707 305.0292 14.27920250 65190
QIANFAN-29              
1 61562U 24185L   25311.78123277  .00000260  00000+0  38354-3 0  9992
2 61562  88.9764  84.9164 0011211 145.6149 214.5730 13.50992490 63072
QIANFAN-30              
1 61563U 24185M   25311.80376243  .00000256  00000+0  38398-3 0  9992
2 61563  88.9784  84.4260 0008942 130.9736 229.2189 13.49969128 63355
QIANFAN-31              
1 61564U 24185N   25311.82986597  .00000301  00000+0  39992-3 0  9996
2 61564  88.9769  84.2807 0008625 126.6760 233.5189 13.57945557 63426
QIANFAN-32              
1 61565U 24185P   25311.79148794  .00000161  00000+0  23159-3 0  9994
2 61565  88.9827  84.5508 0010222 155.9102 204.2529 13.50718772 63326
